H1 CPF 01  gfz 2021 12 01 13  8352 tandemx   
H2 1003001  6202 36605    2021 12 01 12 59 42 2021 12 06 00 00 42   120 1 1  0 0 0
H9
10 0 59552  69102.000000  0    3835672.979  -1950064.500   5369318.466
10 0 59552  69222.000000  0    3080369.385  -1812840.833   5878339.068
10 0 59552  69342.000000  0    2274075.578  -1630295.485   6283980.647
10 0 59552  69462.000000  0    1431657.058  -1404863.051   6579146.481
10 0 59552  69582.000000  0     568546.900  -1139988.197   6758678.741
10 0 59552  69702.000000  0    -299539.137   -840072.344   6819442.914
10 0 59552  69822.000000  0   -1156888.372   -510399.924   6760377.946
10 0 59552  69942.000000  0   -1988074.164   -157045.516   6582513.393
10 0 59552  70062.000000  0   -2778232.189    213237.603   6288952.806
10 0 59552  70182.000000  0   -3513326.366    593145.451   5884823.918
10 0 59552  70302.000000  0   -4180400.978    974965.574   5377195.163
10 0 59552  70422.000000  0   -4767814.441   1350731.460   4774958.087
10 0 59552  70542.000000  0   -5265449.782   1712387.159   4088677.084
10 0 59552  70662.000000  0   -5664897.208   2051957.887   3330407.305
10 0 59552  70782.000000  0   -5959604.396   2361723.196   2513484.634
10 0 59552  70902.000000  0   -6144992.284   2634388.888   1652290.538
10 0 59552  71022.000000  0   -6218533.078   2863253.822    761994.584
10 0 59552  71142.000000  0   -6179786.039   3042366.664   -141720.546
10 0 59552  71262.000000  0   -6030391.084   3166668.545  -1042943.736
10 0 59552  71382.000000  0   -5774020.480   3232117.606  -1925824.538
10 0 59552  71502.000000  0   -5416289.685   3235793.275  -2774861.007
10 0 59552  71622.000000  0   -4964628.514   3175976.312  -3575178.150
10 0 59552  71742.000000  0   -4428118.449   3052203.712  -4312791.085
10 0 59552  71862.000000  0   -3817300.378   2865297.397  -4974847.334
10 0 59552  71982.000000  0   -3143958.660   2617366.441  -5549844.720
10 0 59552  72102.000000  0   -2420888.033   2311784.223  -6027821.409
10 0 59552  72222.000000  0   -1661646.802   1953141.144  -6400518.988
10 0 59552  72342.000000  0    -880300.798   1547172.931  -6661512.859
10 0 59552  72462.000000  0     -91165.821   1100667.826  -6806311.793
10 0 59552  72582.000000  0     691448.981    621353.685  -6832426.228
10 0 59552  72702.000000  0    1453493.993    117767.131  -6739408.249
10 0 59552  72822.000000  0    2181426.657   -400895.482  -6528858.004
10 0 59552  72942.000000  0    2862446.202   -924941.432  -6204398.812
10 0 59552  73062.000000  0    3484715.950  -1444357.964  -5771621.471
10 0 59552  73182.000000  0    4037567.912  -1948998.341  -5237997.815
10 0 59552  73302.000000  0    4511689.339  -2428777.626  -4612763.655
10 0 59552  73422.000000  0    4899285.072  -2873873.097  -3906769.424
10 0 59552  73542.000000  0    5194213.073  -3274924.812  -3132301.753
10 0 59552  73662.000000  0    5392091.258  -3623232.759  -2302876.916
10 0 59552  73782.000000  0    5490371.173  -3910945.881  -1433007.909
10 0 59552  73902.000000  0    5488376.018  -4131238.452   -537950.395
10 0 59552  74022.000000  0    5387301.938  -4278469.199    366568.719
10 0 59552  74142.000000  0    5190181.534  -4348319.045   1264634.796
10 0 59552  74262.000000  0    4901808.747  -4337902.572   2140434.573
10 0 59552  74382.000000  0    4528628.441  -4245849.534   2978543.624
10 0 59552  74502.000000  0    4078593.737  -4072355.414   3764205.077
10 0 59552  74622.000000  0    3560994.868  -3819201.017   4483595.252
10 0 59552  74742.000000  0    2986262.240  -3489738.913   5124070.356
10 0 59552  74862.000000  0    2365751.229  -3088847.488   5674388.035
10 0 59552  74982.000000  0    1711513.119  -2622854.997   6124902.557
10 0 59552  75102.000000  0    1036056.572  -2099435.009   6467728.292
10 0 59552  75222.000000  0     352106.120  -1527476.519   6696871.585
10 0 59552  75342.000000  0    -327638.457   -916930.489   6808329.702
10 0 59552  75462.000000  0    -990737.231   -278635.012   6800156.079
10 0 59552  75582.000000  0   -1625236.732    375877.022   6672491.960
10 0 59552  75702.000000  0   -2219884.700   1034585.806   6427564.175
10 0 59552  75822.000000  0   -2764329.661   1685204.430   6069648.842
10 0 59552  75942.000000  0   -3249302.260   2315407.357   5605001.659
10 0 59552  76062.000000  0   -3666776.334   2913064.790   5041755.365
10 0 59552  76182.000000  0   -4010106.380   3466478.363   4389783.009
10 0 59552  76302.000000  0   -4274138.495   3964613.347   3660529.917
10 0 59552  76422.000000  0   -4455292.736   4397323.370   2866815.813
10 0 59552  76542.000000  0   -4551613.516   4755562.150   2022608.934
10 0 59552  76662.000000  0   -4562786.478   5031576.467   1142776.690
10 0 59552  76782.000000  0   -4490122.773   5219074.681    242818.161
10 0 59552  76902.000000  0   -4336511.027   5313368.307   -661416.103
10 0 59552  77022.000000  0   -4106336.457   5311483.026  -1554013.806
10 0 59552  77142.000000  0   -3805367.505   5212231.203  -2419290.819
10 0 59552  77262.000000  0   -3440616.732   5016250.447  -3242073.184
10 0 59552  77382.000000  0   -3020178.090   4726003.359  -4007967.918
10 0 59552  77502.000000  0   -2553045.981   4345740.689  -4703613.923
10 0 59552  77622.000000  0   -2048921.171   3881430.934  -5316909.624
10 0 59552  77742.000000  0   -1518009.076   3340659.588  -5837215.651
10 0 59552  77862.000000  0    -970813.305   2732497.819  -6255530.734
10 0 59552  77982.000000  0    -417928.882   2067344.037  -6564636.214
10 0 59552  78102.000000  0     130159.762   1356743.730  -6759208.666
10 0 59552  78222.000000  0     663272.508    613189.855  -6835902.296
10 0 59552  78342.000000  0    1171718.436   -150093.000  -6793401.014
10 0 59552  78462.000000  0    1646467.976   -919379.542  -6632437.590
10 0 59552  78582.000000  0    2079308.802  -1680684.092  -6355781.325
10 0 59552  78702.000000  0    2462985.604  -2420008.121  -5968195.884
10 0 59552  78822.000000  0    2791321.146  -3123592.364  -5476367.220
10 0 59552  78942.000000  0    3059318.124  -3778172.799  -4888800.037
10 0 59552  79062.000000  0    3263237.458  -4371232.013  -4215679.524
10 0 59552  79182.000000  0    3400651.639  -4891240.378  -3468705.236
10 0 59552  79302.000000  0    3470474.541  -5327886.497  -2660898.001
10 0 59552  79422.000000  0    3472964.444  -5672290.846  -1806377.839
10 0 59552  79542.000000  0    3409699.741  -5917194.036   -920118.144
10 0 59552  79662.000000  0    3283527.757  -6057117.307    -17680.372
10 0 59552  79782.000000  0    3098485.816  -6088488.088    885065.704
10 0 59552  79902.000000  0    2859698.490  -6009729.148   1772228.312
10 0 59552  80022.000000  0    2573252.648  -5821307.111   2628184.020
10 0 59552  80142.000000  0    2246052.137  -5525737.964   3437861.119
10 0 59552  80262.000000  0    1885657.911  -5127552.259   4187010.328
10 0 59552  80382.000000  0    1500117.399  -4633220.973   4862459.587
10 0 59552  80502.000000  0    1097787.985  -4051042.989   5452346.764
10 0 59552  80622.000000  0     687157.086  -3390997.152   5946327.891
10 0 59552  80742.000000  0     276663.523  -2664561.559   6335753.300
10 0 59552  80862.000000  0    -125474.429  -1884507.759   6613811.988
10 0 59552  80982.000000  0    -511421.603  -1064673.031   6775644.346
10 0 59552  81102.000000  0    -873877.206   -219713.386   6818423.257
10 0 59552  81222.000000  0   -1206211.916    635159.453   6741400.671
10 0 59552  81342.000000  0   -1502588.710   1484451.619   6545919.522
10 0 59552  81462.000000  0   -1758065.278   2312667.028   6235391.765
10 0 59552  81582.000000  0   -1968677.122   3104590.030   5815242.630
10 0 59552  81702.000000  0   -2131499.395   3845566.223   5292820.960
10 0 59552  81822.000000  0   -2244687.128   4521777.157   4677277.806
10 0 59552  81942.000000  0   -2307493.161   5120504.692   3979411.789
10 0 59552  82062.000000  0   -2320262.638   5630378.508   3211483.313
10 0 59552  82182.000000  0   -2284404.212   6041600.587   2386999.577
10 0 59552  82302.000000  0   -2202338.413   6346141.755   1520475.377
10 0 59552  82422.000000  0   -2077423.898   6537905.848    627172.989
10 0 59552  82542.000000  0   -1913863.509   6612856.644   -277173.345
10 0 59552  82662.000000  0   -1716592.886   6569104.653  -1176642.999
10 0 59552  82782.000000  0   -1491153.527   6406950.700  -2055420.806
10 0 59552  82902.000000  0   -1243553.151   6128880.218  -2898084.508
10 0 59552  83022.000000  0    -980119.271   5739515.026  -3689878.334
10 0 59552  83142.000000  0    -707349.334   5245526.084  -4416972.031
10 0 59552  83262.000000  0    -431760.899   4655506.810  -5066700.078
10 0 59552  83382.000000  0    -159744.857   3979812.581  -5627776.239
10 0 59552  83502.000000  0     102575.125   3230369.172  -6090481.807
10 0 59552  83622.000000  0     349473.416   2420454.028  -6446823.276
10 0 59552  83742.000000  0     575740.518   1564457.425  -6690658.188
10 0 59552  83862.000000  0     776787.707    677627.660  -6817791.174
10 0 59552  83982.000000  0     948735.832   -224197.252  -6826038.269
10 0 59552  84102.000000  0    1088487.221  -1124867.229  -6715259.898
10 0 59552  84222.000000  0    1193779.666  -2008201.891  -6487361.171
10 0 59552  84342.000000  0    1263222.442  -2858272.723  -6146263.062
10 0 59552  84462.000000  0    1296314.279  -3659685.307  -5697844.376
10 0 59552  84582.000000  0    1293441.022  -4397857.884  -5149850.378
10 0 59552  84702.000000  0    1255855.043  -5059287.561  -4511769.086
10 0 59552  84822.000000  0    1185635.722  -5631802.473  -3794678.974
10 0 59552  84942.000000  0    1085630.656  -6104795.036  -3011065.735
10 0 59552  85062.000000  0     959379.751  -6469429.381  -2174611.420
10 0 59552  85182.000000  0     811023.549  -6718819.134  -1299958.594
10 0 59552  85302.000000  0     645196.764  -6848169.545   -402452.531
10 0 59552  85422.000000  0     466909.996  -6854878.988    502132.701
10 0 59552  85542.000000  0     281422.691  -6738598.038   1397878.029
99
